CCSDS_OEM_VERS = 2.0
CREATION_DATE = 2024-10-04T03:00:53.275000000
ORIGINATOR = NONE

META_START
OBJECT_NAME = _SCPACE_OEM
OBJECT_ID = 1
CENTER_NAME = EARTH
REF_FRAME = EME2000
TIME_SYSTEM = UTC
START_TIME = 2024-10-02T16:00:00.000000000
STOP_TIME = 2024-10-04T00:00:00.000000000
INTERPOLATION = LAGRANGE
INTERPOLATION_DEGREE = 8
META_STOP

2024-10-02T18:51:00.000000000 -6.315203401523060e+03 -3.144331258149540e+03  3.337993199442712e+01 -4.286572028298771e-01  9.600716388966242e-01  7.444809317496525e+00
2024-10-02T18:52:00.000000000 -6.327986797568667e+03 -3.080334238615256e+03  4.796947726623500e+02  2.704949673828577e-03  1.172441756475821e+00  7.427260088332535e+00
2024-10-02T18:53:00.000000000 -6.314877475419453e+03 -3.003733402185337e+03  9.240416716036304e+02  4.341353496404341e-01  1.380053656464045e+00  7.379232800147822e+00
2024-10-02T18:54:00.000000000 -6.275924898430938e+03 -2.914840144721653e+03  1.364597065987052e+03  8.638487663530758e-01  1.582046752621431e+00  7.300916323117352e+00
2024-10-02T18:55:00.000000000 -6.211285501820165e+03 -2.814016833367627e+03  1.799552479610502e+03  1.290066214239105e+00  1.777583918191483e+00  7.192628273432711e+00
2024-10-02T18:56:00.000000000 -6.121222074803051e+03 -2.701675276442148e+03  2.227122306764024e+03  1.711023308039522e+00  1.965855212295671e+00  7.054813684751591e+00
2024-10-02T18:57:00.000000000 -6.006102620336354e+03 -2.578274966205207e+03  2.645551448178683e+03  2.124978817824203e+00  2.146081570523565e+00  6.888043126430257e+00
2024-10-02T18:58:00.000000000 -5.866398780669164e+03 -2.444321178182065e+03  3.053122563383417e+03  2.530223062579408e+00  2.317518547238067e+00  6.693009372701550e+00
2024-10-02T18:59:00.000000000 -5.702683503817660e+03 -2.300362620246314e+03  3.448163686147380e+03  2.925085515082481e+00  2.479459662268740e+00  6.470522533551304e+00
2024-10-02T19:00:00.000000000 -5.515628747352094e+03 -2.146989266804495e+03  3.829054730926999e+03  3.307940150070924e+00  2.631238753755239e+00  6.221506185594241e+00
2024-10-02T19:01:00.000000000 -5.306002396390374e+03 -1.984829675626437e+03  4.194234539010604e+03  3.677212363062743e+00  2.772232952033470e+00  5.946993984087954e+00
2024-10-02T19:02:00.000000000 -5.074665197886716e+03 -1.814548497284415e+03  4.542206999564429e+03  4.031386208463209e+00  2.901865231071415e+00  5.648125085028887e+00
2024-10-02T19:03:00.000000000 -4.822566935295775e+03 -1.636843582954497e+03  4.871547357435722e+03  4.369010944156822e+00  3.019606329941343e+00  5.326137890171635e+00
2024-10-02T19:04:00.000000000 -4.550742423277792e+03 -1.452443097950749e+03  5.180907964723415e+03  4.688705886149076e+00  3.124976438405546e+00  4.982364742088833e+00
2024-10-02T19:05:00.000000000 -4.260306972327690e+03 -1.262102394540622e+03  5.469023876854281e+03  4.989166212965121e+00  3.217547623335642e+00  4.618226929287524e+00
2024-10-02T19:06:00.000000000 -3.952451648181090e+03 -1.066600830939396e+03  5.734718018107939e+03  5.269169243423432e+00  3.296945930871038e+00  4.235227952009384e+00
2024-10-02T19:07:00.000000000 -3.628438374158738e+03 -8.667386070690823e+02  5.976905713675435e+03  5.527579186652866e+00  3.362852364394519e+00  3.834945670779580e+00
2024-10-02T19:08:00.000000000 -3.289594640377240e+03 -6.633334681314946e+02  6.194598944028922e+03  5.763350523640256e+00  3.415003379392552e+00  3.419024920829880e+00
2024-10-02T19:09:00.000000000 -2.937307859645187e+03 -4.572172871174791e+02  6.386910219137909e+03  5.975531194796255e+00  3.453191390493711e+00  2.989170646259664e+00
2024-10-02T19:10:00.000000000 -2.573019647162678e+03 -2.492326740370093e+02  6.553056031385890e+03  6.163265393523610e+00  3.477265066933136e+00  2.547141321112084e+00
2024-10-02T19:11:00.000000000 -2.198219937729056e+03 -4.022957556061534e+01  6.692359860766515e+03  6.325796375539539e+00  3.487129817688585e+00  2.094742826790827e+00
2024-10-02T19:12:00.000000000 -1.814441013521371e+03  1.689381075509953e+02  6.804254786107133e+03  6.462469776298824e+00  3.482748669520672e+00  1.633821758355506e+00
2024-10-02T19:13:00.000000000 -1.423251463751043e+03  3.774158975683201e+02  6.888285662849741e+03  6.572736207334045e+00  3.464142646217395e+00  1.166257419503620e+00
2024-10-02T19:14:00.000000000 -1.026249473329393e+03  5.843524024582663e+02  6.944110919187709e+03  6.656152485330859e+00  3.431390167758412e+00  6.939537012194078e-01
2024-10-02T19:15:00.000000000 -6.250566650011739e+02  7.889026057902337e+02  6.971503787001374e+03  6.712382869690618e+00  3.384626312161019e+00  2.188328163560575e-01
2024-10-02T19:16:00.000000000 -2.213114893644109e+02  9.902313045362885e+02  6.970353201025952e+03  6.741200990931298e+00  3.324042232131501e+00 -2.571720574271891e-01
2024-10-02T19:17:00.000000000  1.833371460414262e+02  1.187516340049329e+03  6.940664235721303e+03  6.742490618599439e+00  3.249884355270649e+00 -7.321245138460363e-01
2024-10-02T19:18:00.000000000  5.872368179022903e+02  1.379952036743545e+03  6.882557990553678e+03  6.716245772877538e+00  3.162453418034872e+00 -1.204092501185841e+00
2024-10-02T19:19:00.000000000  9.887381485236517e+02  1.566752419196804e+03  6.796271217267964e+03  6.662570959866263e+00  3.062103342587258e+00 -1.671155421779728e+00
2024-10-02T19:20:00.000000000  1.386201171703963e+03  1.747154230491108e+03  6.682155422014917e+03  6.581680906317156e+00  2.949239799685464e+00 -2.131411542130160e+00
2024-10-02T19:21:00.000000000  1.778002166244478e+03  1.920420101540495e+03  6.540675419449331e+03  6.473899485074393e+00  2.824318746243781e+00 -2.582985247736112e+00
2024-10-02T19:22:00.000000000  2.162540067817461e+03  2.085841488022462e+03  6.372407626107947e+03  6.339659051598559e+00  2.687845306829554e+00 -3.024033869033461e+00
2024-10-02T19:23:00.000000000  2.538242991241623e+03  2.242741589094021e+03  6.178037819745985e+03  6.179499356731966e+00  2.540371999784303e+00 -3.452755608459927e+00
2024-10-02T19:24:00.000000000  2.903574611354187e+03  2.390478119611320e+03  5.958358484503065e+03  5.994065340711781e+00  2.382496307615335e+00 -3.867396862691571e+00
2024-10-02T19:25:00.000000000  3.257040383844858e+03  2.528445928591669e+03  5.714265719614064e+03  5.784104921975378e+00  2.214858379283785e+00 -4.266258716149768e+00
2024-10-02T19:26:00.000000000  3.597193703230508e+03  2.656079511386002e+03  5.446755727186086e+03  5.550466703464854e+00  2.038138885220527e+00 -4.647703518527359e+00
2024-10-02T19:27:00.000000000  3.922641968578650e+03  2.772855410082985e+03  5.156920855317901e+03  5.294097558346701e+00  1.853057024001895e+00 -5.010161602117222e+00
2024-10-02T19:28:00.000000000  4.232052010198410e+03  2.878294330344257e+03  4.845945630660563e+03  5.016040433637670e+00  1.660368279952330e+00 -5.352139001931238e+00
2024-10-02T19:29:00.000000000  4.524156057280432e+03  2.971963314715947e+03  4.515101708242973e+03  4.717428709808864e+00  1.460859891748715e+00 -5.672226373502473e+00
2024-10-02T19:30:00.000000000  4.797756933169660e+03  3.053477496026010e+03  4.165742544515717e+03  4.399478753098224e+00  1.255346471534583e+00 -5.969102848541518e+00
2024-10-02T19:31:00.000000000  5.051732913721241e+03  3.122501682583813e+03  3.799298030421407e+03  4.063487337104577e+00  1.044669006004494e+00 -6.241537015748565e+00
2024-10-02T19:32:00.000000000  5.285042419493336e+03  3.178751902214075e+03  3.417269303123411e+03  3.710832618621402e+00  8.296943119837845e-01 -6.488394364704705e+00
2024-10-02T19:33:00.000000000  5.496728876583406e+03  3.221996844903466e+03  3.021222340188172e+03  3.342967856347308e+00  6.113094982513329e-01 -6.708649497794997e+00
2024-10-02T19:34:00.000000000  5.685924876484627e+03  3.252058871925988e+03  2.612781270878717e+03  2.961409807330118e+00  3.904151468705085e-01 -6.901390951539531e+00
2024-10-02T19:35:00.000000000  5.851855699101472e+03  3.268814793923035e+03  2.193622064659656e+03  2.567731997629675e+00  1.679223648562619e-01 -7.065820738329612e+00
2024-10-02T19:36:00.000000000  5.993842820214372e+03  3.272196186952843e+03  1.765463797575379e+03  2.163559514588624e+00 -5.525038087643683e-02 -7.201259210291939e+00
2024-10-02T19:37:00.000000000  6.111306466557819e+03  3.262189819810004e+03  1.330062880801960e+03  1.750562686248943e+00 -2.781814073223128e-01 -7.307149354859490e+00
2024-10-02T19:38:00.000000000  6.203768200532963e+03  3.238837862231455e+03  8.892061302633768e+02  1.330449086386754e+00 -4.999503098372221e-01 -7.383058291004569e+00
2024-10-02T19:39:00.000000000  6.270852953563123e+03  3.202237645464591e+03  4.447028659785148e+02  9.049566331117668e-01 -7.196415652063929e-01 -7.428679206334249e+00
2024-10-02T19:40:00.000000000  6.312290759987663e+03  3.152540873369884e+03 -1.624676640941767e+00  4.758439739643468e-01 -9.363494858152417e-01 -7.443834025789180e+00
2024-10-02T19:41:00.000000000  6.327917471191725e+03  3.089953415708031e+03 -4.479462847414523e+02  4.488393327949378e-02 -1.149181280005828e+00 -7.428473144491855e+00
2024-10-02T19:42:00.000000000  6.317675644705579e+03  3.014734299303772e+03 -8.924323467488365e+02 -3.861444711331831e-01 -1.357260890681163e+00 -7.382674713254658e+00
2024-10-02T19:43:00.000000000  6.281614446135082e+03  2.927194350337923e+03 -1.333262395436451e+03 -8.154639892883959e-01 -1.559733052818679e+00 -7.306644809680284e+00
2024-10-02T19:44:00.000000000  6.219889543866522e+03  2.827695101578176e+03 -1.768631812199746e+03 -1.241306562011122e+00 -1.755766920919825e+00 -7.200716457321718e+00
2024-10-02T19:45:00.000000000  6.132762189749799e+03  2.716647095823503e+03 -2.196759731911896e+03 -1.661921571036232e+00 -1.944559803885783e+00 -7.065347434087920e+00
2024-10-02T19:46:00.000000000  6.020597977715713e+03  2.594508112286145e+03 -2.615896489803451e+03 -2.075583192926126e+00 -2.125340373249110e+00 -6.901118013101440e+00
2024-10-02T19:47:00.000000000  5.883865080494626e+03  2.461781156629053e+03 -3.024330900811005e+03 -2.480598171732872e+00 -2.297372197823884e+00 -6.708728219032753e+00
